NORAD_CAT_ID,OBJECT_NAME,OBJECT_TYPE,EPOCH,MEAN_MOTION,ECCENTRICITY,INCLINATION,RA_OF_ASC_NODE,ARG_OF_PERICENTER,MEAN_ANOMALY,BSTAR,MEAN_MOTION_DOT,MEAN_MOTION_DDOT,TLE_LINE0,TLE_LINE1,TLE_LINE2,SEMIMAJOR_AXIS,PERIOD,APOGEE,PERIGEE,DECAYED
52614.0,STARLINK-3982,PAYLOAD,2023-03-21 09:50:06,15.08847339,0.0001287,53.2145,96.6395,107.9924,252.1209,0.0011341,0.00017811,0.0,0 STARLINK-3982,1 52614U 22052S   23080.40979388  .00017811  00000-0  11341-2 0  9990,2 52614  53.2145  96.6395 0001287 107.9924 252.1209 15.08847339 47671,6917.858,95.437,540.613,538.833,0.0
52614.0,STARLINK-3982,PAYLOAD,2023-03-22 01:43:57,15.08847954,0.0001278,53.2141,93.6655,105.9365,254.1768,0.00069741,0.00010831,0.0,0 STARLINK-3982,1 52614U 22052S   23081.07219593  .00010831  00000-0  69741-3 0  9992,2 52614  53.2141  93.6655 0001278 105.9365 254.1768 15.08847954 47776,6917.856,95.437,540.605,538.837,0.0
52614.0,STARLINK-3982,PAYLOAD,2023-03-22 09:40:53,15.08842371,0.0001334,53.2144,92.1786,107.1024,253.0114,0.00031749,4.769e-05,0.0,0 STARLINK-3982,1 52614U 22052S   23081.40339645  .00004769  00000-0  31749-3 0  9990,2 52614  53.2144  92.1786 0001334 107.1024 253.0114 15.08842371 47824,6917.873,95.437,540.661,538.815,0.0
52614.0,STARLINK-3982,PAYLOAD,2023-03-22 17:37:49,15.08845286,0.0001267,53.2139,90.6909,93.8663,266.2474,0.00036608,5.544e-05,0.0,0 STARLINK-3982,1 52614U 22052S   23081.73459674  .00005544  00000-0  36608-3 0  9992,2 52614  53.2139  90.6909 0001267  93.8663 266.2474 15.08845286 47501,6917.864,95.437,540.606,538.853,0.0
52614.0,STARLINK-3982,PAYLOAD,2023-03-23 09:31:40,15.08845165,0.0001361,53.2148,87.717,94.9287,265.1861,0.00026568,3.943e-05,0.0,0 STARLINK-3982,1 52614U 22052S   23082.39699605  .00003943  00000-0  26568-3 0  9990,2 52614  53.2148  87.7170 0001361  94.9287 265.1861 15.08845165 47972,6917.865,95.437,540.671,538.788,0.0
52614.0,STARLINK-3982,PAYLOAD,2023-03-24 12:33:13,15.0886755,0.0001384,53.2157,82.661,98.2933,261.8216,0.00076061,0.00011847,0.0,0 STARLINK-3982,1 52614U 22052S   23083.52306961  .00011847  00000-0  76061-3 0  9991,2 52614  53.2157  82.6610 0001384  98.2933 261.8216 15.08867550 48144,6917.796,95.436,540.619,538.704,0.0
52614.0,STARLINK-3982,PAYLOAD,2023-03-24 17:19:23,15.08827838,0.0001265,53.2155,81.7692,106.8871,253.226,-0.00027965,-4.734e-05,0.0,0 STARLINK-3982,1 52614U 22052S   23083.72179950 -.00004734  00000-0 -27965-3 0  9997,2 52614  53.2155  81.7692 0001265 106.8871 253.2260 15.08827838 48179,6917.918,95.438,540.658,538.907,0.0
52614.0,STARLINK-3982,PAYLOAD,2023-03-25 17:10:11,15.08840484,0.0001476,53.2159,77.3094,100.8778,259.238,0.00097169,0.0001521,0.0,0 STARLINK-3982,1 52614U 22052S   23084.71540634  .00015210  00000-0  97169-3 0  9990,2 52614  53.2159  77.3094 0001476 100.8778 259.2380 15.08840484 48322,6917.879,95.438,540.765,538.723,0.0
52614.0,STARLINK-3982,PAYLOAD,2023-03-26 10:39:24,15.08868826,0.0001542,53.2165,74.0385,99.9584,260.1582,0.0011977,0.0001884,0.0,0 STARLINK-3982,1 52614U 22052S   23085.44403861  .00018840  00000-0  11977-2 0  9995,2 52614  53.2165  74.0385 0001542  99.9584 260.1582 15.08868826 48069,6917.792,95.436,540.724,538.591,0.0
52614.0,STARLINK-3982,PAYLOAD,2023-03-27 04:08:39,15.08846018,0.0001381,53.217,70.7697,93.6491,266.4659,0.00029979,4.487e-05,0.0,0 STARLINK-3982,1 52614U 22052S   23086.17268161  .00004487  00000-0  29979-3 0  9992,2 52614  53.2170  70.7697 0001381  93.6491 266.4659 15.08846018 48549,6917.862,95.437,540.682,538.772,0.0
52614.0,STARLINK-3982,PAYLOAD,2023-03-27 10:30:12,15.08852377,0.0001529,53.2169,69.5781,94.0092,266.1074,0.0006434,9.97e-05,0.0,0 STARLINK-3982,1 52614U 22052S   23086.43764049  .00009970  00000-0  64340-3 0  9990,2 52614  53.2169  69.5781 0001529  94.0092 266.1074 15.08852377 48210,6917.843,95.437,540.765,538.65,0.0
52614.0,STARLINK-3982,PAYLOAD,2023-03-27 15:16:21,15.0883507,0.0001893,53.2167,68.6859,91.315,268.8059,0.00026611,3.949e-05,0.0,0 STARLINK-3982,1 52614U 22052S   23086.63636366  .00003949  00000-0  26611-3 0  9991,2 52614  53.2167  68.6859 0001893  91.3150 268.8059 15.08835070 48610,6917.895,95.438,541.07,538.451,0.0
52614.0,STARLINK-3982,PAYLOAD,2023-03-28 03:59:26,15.08850378,0.0001535,53.2168,66.3075,102.2413,257.8751,0.0011687,0.00018366,0.0,0 STARLINK-3982,1 52614U 22052S   23087.16628241  .00018366  00000-0  11687-2 0  9998,2 52614  53.2168  66.3075 0001535 102.2413 257.8751 15.08850378 48696,6917.849,95.437,540.776,538.652,0.0
52614.0,STARLINK-3982,PAYLOAD,2023-03-28 10:20:58,15.08865701,0.0001378,53.2166,65.1184,100.8372,259.2775,0.0012041,0.00018941,0.0,0 STARLINK-3982,1 52614U 22052S   23087.43123788  .00018941  00000-0  12041-2 0  9998,2 52614  53.2166  65.1184 0001378 100.8372 259.2775 15.08865701 48367,6917.802,95.436,540.62,538.714,0.0
52614.0,STARLINK-3982,PAYLOAD,2023-03-28 15:07:08,15.08845138,0.0001432,53.2164,64.2269,96.6931,263.4224,0.00045056,6.891e-05,0.0,0 STARLINK-3982,1 52614U 22052S   23087.62996154  .00006891  00000-0  45056-3 0  9998,2 52614  53.2164  64.2269 0001432  96.6931 263.4224 15.08845138 48765,6917.865,95.437,540.72,538.739,0.0
52614.0,STARLINK-3982,PAYLOAD,2023-03-29 08:36:23,15.08850818,0.0001473,53.2172,60.9559,106.6424,253.473,0.00097162,0.00015214,0.0,0 STARLINK-3982,1 52614U 22052S   23088.35860020  .00015214  00000-0  97162-3 0  9995,2 52614  53.2172  60.9559 0001473 106.6424 253.4730 15.08850818 48507,6917.847,95.437,540.731,538.693,0.0
52614.0,STARLINK-3982,PAYLOAD,2023-03-30 02:05:37,15.08845488,0.0001253,53.2166,57.6846,107.0786,253.0343,0.00064441,9.984e-05,0.0,0 STARLINK-3982,1 52614U 22052S   23089.08724347  .00009984  00000-0  64441-3 0  9998,2 52614  53.2166  57.6846 0001253 107.0786 253.0343 15.08845488 48989,6917.864,95.437,540.595,538.862,0.0
52614.0,STARLINK-3982,PAYLOAD,2023-03-30 10:02:33,15.08867267,0.000137,53.2161,56.1968,103.054,257.0606,0.0014532,0.00022933,0.0,0 STARLINK-3982,1 52614U 22052S   23089.41843996  .00022933  00000-0  14532-2 0  9991,2 52614  53.2161  56.1968 0001370 103.0540 257.0606 15.08867267 49039,6917.797,95.436,540.61,538.714,0.0
52614.0,STARLINK-3982,PAYLOAD,2023-03-31 06:42:34,15.08866642,0.0001457,53.2158,52.3319,100.6103,259.5054,0.0025246,0.0004015,0.0,0 STARLINK-3982,1 52614U 22052S   23090.27956358  .00040150  00000-0  25246-2 0  9999,2 52614  53.2158  52.3319 0001457 100.6103 259.5054 15.08866642 49161,6917.799,95.436,540.672,538.656,0.0
52614.0,STARLINK-3982,PAYLOAD,2023-04-01 01:47:12,15.08851113,0.0001247,53.2157,48.7625,71.9723,288.1405,0.0017325,0.00027401,0.0,0 STARLINK-3982,1 52614U 22052S   23091.07444848  .00027401  00000-0  17325-2 0  9997,2 52614  53.2157  48.7625 0001247  71.9723 288.1405 15.08851113 49282,6917.846,95.437,540.574,538.849,0.0
52614.0,STARLINK-3982,PAYLOAD,2023-04-01 06:33:21,15.08858657,0.000136,53.2159,47.8698,78.8319,281.2826,0.0016255,0.0002569,0.0,0 STARLINK-3982,1 52614U 22052S   23091.27316618  .00025690  00000-0  16255-2 0  9991,2 52614  53.2159  47.8698 0001360  78.8319 281.2826 15.08858657 48940,6917.823,95.436,540.629,538.748,0.0
52614.0,STARLINK-3982,PAYLOAD,2023-04-02 03:13:22,15.08853165,0.0001384,53.2163,44.006,92.4759,267.6392,0.001195,0.00018788,0.0,0 STARLINK-3982,1 52614U 22052S   23092.13428790  .00018788  00000-0  11950-2 0  9999,2 52614  53.2163  44.0060 0001384  92.4759 267.6392 15.08853165 49444,6917.84,95.437,540.663,538.748,0.0
52614.0,STARLINK-3982,PAYLOAD,2023-04-02 19:07:13,15.08844481,0.0001568,53.215,41.0312,97.4808,262.6362,0.00048877,7.5e-05,0.0,0 STARLINK-3982,1 52614U 22052S   23092.79668942  .00007500  00000-0  48877-3 0  9995,2 52614  53.2150  41.0312 0001568  97.4808 262.6362 15.08844481 49545,6917.867,95.437,540.816,538.647,0.0
52614.0,STARLINK-3982,PAYLOAD,2023-04-03 06:14:55,15.08849525,0.0001118,53.2169,38.9496,92.0203,268.0917,0.00065498,0.00010154,0.0,0 STARLINK-3982,1 52614U 22052S   23093.26036812  .00010154  00000-0  65498-3 0  9990,2 52614  53.2169  38.9496 0001118  92.0203 268.0917 15.08849525 49241,6917.851,95.437,540.49,538.943,0.0
52614.0,STARLINK-3982,PAYLOAD,2023-04-04 01:19:33,15.08846396,0.0001189,53.2171,35.3835,99.6078,260.5048,0.00027112,4.03e-05,0.0,0 STARLINK-3982,1 52614U 22052S   23094.05524828  .00004030  00000-0  27112-3 0  9994,2 52614  53.2171  35.3835 0001189  99.6078 260.5048 15.08846396 49732,6917.861,95.437,540.548,538.903,0.0
52614.0,STARLINK-3982,PAYLOAD,2023-04-04 06:05:42,15.08858278,0.0001251,53.218,34.4912,90.9204,269.1931,0.00058191,8.99e-05,0.0,0 STARLINK-3982,1 52614U 22052S   23094.25396548  .00008990  00000-0  58191-3 0  9992,2 52614  53.2180  34.4912 0001251  90.9204 269.1931 15.08858278 49764,6917.825,95.436,540.555,538.824,0.0
52614.0,STARLINK-3982,PAYLOAD,2023-04-04 20:24:11,15.08838519,0.0001044,53.2175,31.8143,103.3263,256.7845,8.8469e-05,1.12e-05,0.0,0 STARLINK-3982,1 52614U 22052S   23094.85012964  .00001120  00000-0  88469-4 0  9995,2 52614  53.2175  31.8143 0001044 103.3263 256.7845 15.08838519 49480,6917.885,95.438,540.472,539.028,0.0
52614.0,STARLINK-3982,PAYLOAD,2023-04-05 02:45:43,15.08848693,0.0001208,53.2179,30.625,110.3959,249.7163,0.00090279,0.00014113,0.0,0 STARLINK-3982,1 52614U 22052S   23095.11508943  .00014113  00000-0  90279-3 0  9999,2 52614  53.2179  30.6250 0001208 110.3959 249.7163 15.08848693 49896,6917.854,95.437,540.554,538.883,0.0
52614.0,STARLINK-3982,PAYLOAD,2023-04-05 05:56:29,15.08859585,9.7e-05,53.2176,30.0307,107.3203,252.7896,0.0015238,0.00024059,0.0,0 STARLINK-3982,1 52614U 22052S   23095.24756758  .00024059  00000-0  15238-2 0  9993,2 52614  53.2176  30.0307 0000970 107.3203 252.7896 15.08859585 49544,6917.821,95.436,540.357,539.014,0.0
52614.0,STARLINK-3982,PAYLOAD,2023-04-06 02:36:30,15.0884333,0.0001152,53.2177,26.1653,109.7513,250.3603,0.00038826,5.897e-05,0.0,0 STARLINK-3982,1 52614U 22052S   23096.10868969  .00005897  00000-0  38826-3 0  9995,2 52614  53.2177  26.1653 0001152 109.7513 250.3603 15.08843330 50046,6917.87,95.437,540.532,538.938,0.0
